[{"OBJECT_NAME":"STARLINK-4406","OBJECT_ID":"2022-105V","EPOCH":"2026-03-09T16:11:57.725088","MEAN_MOTION":15.05688645,"ECCENTRICITY":0.00032736,"INCLINATION":97.5995,"RA_OF_ASC_NODE":311.2806,"ARG_OF_PERICENTER":72.4901,"MEAN_ANOMALY":287.6683,"EPHEMERIS_TYPE":0,"CLASSIFICATION_TYPE":"U","NORAD_CAT_ID":53667,"ELEMENT_SET_NO":999,"REV_AT_EPOCH":19330,"BSTAR":0.00038130822,"MEAN_MOTION_DOT":5.451e-5,"MEAN_MOTION_DDOT":0},{"OBJECT_NAME":"THOR AGENA B R\/B","OBJECT_ID":"1965-098C","EPOCH":"2026-03-09T15:40:12.733824","MEAN_MOTION":12.27969783,"ECCENTRICITY":0.13310603,"INCLINATION":79.835,"RA_OF_ASC_NODE":125.8522,"ARG_OF_PERICENTER":232.6333,"MEAN_ANOMALY":114.6139,"EPHEMERIS_TYPE":0,"CLASSIFICATION_TYPE":"U","NORAD_CAT_ID":1807,"ELEMENT_SET_NO":999,"REV_AT_EPOCH":66108,"BSTAR":0.00040632197,"MEAN_MOTION_DOT":1.226e-5,"MEAN_MOTION_DDOT":0}]
